GLOBALSTAR M023         
1 25621U 99004A   24164.00148566 -.00000004  00000+0  55479-3 0  9992
2 25621  52.0103 100.6291 0010657  30.6981  48.0004 12.62456884168977
GLOBALSTAR M040         
1 25622U 99004B   24164.24777326 -.00000069  00000+0  19402-3 0  9998
2 25622  51.9912 103.4862 0000855 344.9852 180.0729 12.61976161168544
GLOBALSTAR M036         
1 25623U 99004C   24164.22705682 -.00000061  00000+0  32104-3 0  9999
2 25623  51.9938 135.4287 0011362  59.7008 313.2167 11.86567358135065
GLOBALSTAR M038         
1 25624U 99004D   24164.48190678 -.00000064  00000+0  25749-3 0  9991
2 25624  51.9991  56.2563 0002348  19.5775 151.8158 12.32501272156740
GLOBALSTAR M022         
1 25649U 99012A   24164.17540081 -.00000091  00000+0 -55648-4 0  9993
2 25649  52.0022 216.7496 0002766 159.7869 249.7618 12.02483914131860
GLOBALSTAR M041         
1 25650U 99012B   24164.52449343 -.00000149  00000+0 -82322-3 0  9995
2 25650  52.0028  85.9772 0002605 326.4557  33.6114 11.96659244134272
GLOBALSTAR M046         
1 25651U 99012C   24164.25319700 -.00000115  00000+0 -29142-3 0  9993
2 25651  52.0019 180.1747 0002422 235.2442 205.5995 12.09390396138906
GLOBALSTAR M037         
1 25652U 99012D   24164.19415969 -.00000024  00000+0  44504-3 0  9998
2 25652  51.9992 230.8015 0002066  98.7349 308.1157 12.62408809164545
